STARLINK-31423          
1 59242U 24049M   26068.56228279 -.00001515  00000+0 -45549-4 0  9998
2 59242  43.0005 144.5037 0001346 254.2471 105.8232 15.27583183112388
TEVEL2-8                
1 63239U 25052AF  26068.66815442  .00019130  00000+0  69304-3 0  9993
2 63239  97.4055 324.2923 0008031 124.9191 235.2804 15.28392908 54807
